#cP2019  6  2  0  0  0.00000000     096 ORBIT IGS14 HLM  IGS 
## 2056      0.00000000   900.00000000 58636 0.0000000000000
+   30   G01G02G03G05G07G08G09G10G11G12G13G14G15G16G17G18G19
+        G20G21G22G23G24G25G26G27G28G29G30G31G32  0  0  0  0
+          0  0  0  0  0  0  0  0  0  0  0  0  0  0  0  0  0
+          0  0  0  0  0  0  0  0  0  0  0  0  0  0  0  0  0
+          0  0  0  0  0  0  0  0  0  0  0  0  0  0  0  0  0
++         5  5  3  3  3  3  4  3  4  4  4  4  4  3  3  4  4
++         3  3  3  4  6  4  4  3  3  3  3  3  3  0  0  0  0
++         0  0  0  0  0  0  0  0  0  0  0  0  0  0  0  0  0
++         0  0  0  0  0  0  0  0  0  0  0  0  0  0  0  0  0
++         0  0  0  0  0  0  0  0  0  0  0  0  0  0  0  0  0
%c G  cc GPS ccc cccc cccc cccc cccc ccccc ccccc ccccc ccccc
%c cc cc ccc ccc cccc cccc cccc cccc ccccc ccccc ccccc ccccc
%f  1.2500000  1.025000000  0.00000000000  0.000000000000000
%f  0.0000000  0.000000000  0.00000000000  0.000000000000000
%i    0    0    0    0      0      0      0      0         0
%i    0    0    0    0      0      0      0      0         0
/* ULTRA ORBIT COMBINATION 20561_00 (58637.000) FROM:       
/* cou emu esu gfu ngu siu usu whu                          
/* REFERENCED TO emu CLOCK AND TO WEIGHTED MEAN POLE:       
/* PCV:IGS14_2045 OL/AL:FES2004  NONE     Y  ORB:CMB CLK:CMB
*  2019  6  2  6 45  0.00000000
PG01 -14003.960861   5355.389452  21711.901535    -30.851570  5  6  9 230       
PG02  14067.324322  17509.683028 -13688.972662   -227.625707  9 10  6 195       
PG03 -22548.293286  11325.528208   8110.873459    186.777678  5  8  6 197       
PG05  15792.988379   5874.130384 -20695.643350      0.714901  6  8  7 201       
PG07  -8193.665333  19369.604278 -15666.293770    -36.252294  8  6  8 204       
PG08 -25540.236117  -4582.945838   6198.111945   -145.844753  4  4  6 240       
PG09 -11596.055404  11662.795599 -20896.284732    399.784879  6  4  6 221       
PG10   5124.252764 -19692.852323  17026.893775     28.691567  8  7  5 229       
PG11 -17355.621079   1620.113963  19451.651532   -593.704987  7  7  7 224       
PG12  23021.020281  -8867.920349   9394.332367    236.955024  5 10  8 211       
PG13  23147.449154  13023.530747  -1301.535290    -60.954686    12  9 211       
PG14 -13763.684580 -17712.239607  14689.066406    -77.886277  7 10  6 236       
PG15  25823.999661   1848.194099   6518.008929   -309.509003  4 10  8 215       
PG16 -15496.898319  -6244.611928 -20938.751432    -44.796399  6  8  4 228       
PG17   5458.335054  16960.636201  20133.606593     64.804390  7  9  7 233       
PG18 -15805.879475  -4751.929183  20346.044085     58.500902  7  9  9 206       
PG19  12806.602258  17457.160597  15030.183239   -311.648506  6  9  9 206       
PG20  12055.946861 -21956.283726   8497.722343    525.127551  8 10  8 210       
PG21   2793.544282 -23609.855544 -11202.871409   -181.074505  7  2  2 225       
PG22 -21598.044579   5522.403658  14614.537355   -710.655242  8  7  6 212       
PG23 -22403.996459   2888.231379 -13944.331734   -183.593257  3  7  7 230       
PG24  15523.467069  -2035.133237  21310.543671    -66.905922  7 11  8 217       
PG25  19389.208943 -17848.627751  -2119.426804   -762.034646  8  7  8 219       
PG26  -6821.621976 -14251.985659 -21349.314208    216.678965  9 10  5 197       
PG27 -23106.007313 -12357.821222  -5349.506955   -147.149702  6  8  8 211       
PG28  -7151.310956  19167.610588  17596.767849    767.698613  7  8  1 212       
PG29  15940.202548  -7363.454252 -19966.551613    186.705704  4  8  4 216       
PG30  -1696.197786  25531.980977  -6705.340379   -116.028788  7  9  7 227       
PG31  -6970.289852 -24902.983874  -4911.882853     33.965180  8  6  8 152       
PG32  -7863.220672 -17037.500062  18902.953863    -61.215399  7  6  5 237       
*  2019  6  2  7  0  0.00000000
PG01 -14518.250821   2876.938493  21870.786083    -30.859972  5  7  9 228       
PG02  14245.053638  19034.947292 -11389.696681   -227.633743  9 11  7 196       
PG03 -21890.892352  10433.721814  10693.276221    186.776756  4  8  6 181       
PG05  14091.487057   7541.347095 -21358.319693      0.714772  7  7  7 204       
PG07  -8757.675429  17481.122053 -17491.376356    -36.259179  8  6  7 203       
PG08 -25993.658933  -4945.171673   3405.519157   -145.846008  4  4  6 242       
PG09 -13791.227507  10868.262618 -19969.906419    399.778120  6  3  5 221       
PG10   6612.715527 -20778.716450  15089.497140     28.681316  8  7  5 230       
PG11 -18590.682030   -316.589098  18351.018886   -593.697297  7  8  8 219       
PG12  22142.822102  -7956.231171  11936.429438    236.951988  5 10  7 213       
PG13  22778.682065  13101.552179  -4146.157633    -60.953004  2 12  9 212       
PG14 -12103.596101 -17181.323462  16673.977438    -77.885073  7  9  6 238       
PG15  26355.580656   2292.086932   3835.470613   -309.506818  5 11  9 215       
PG16 -13598.747128  -7693.784205 -21729.118201    -44.799167  7  9  4 228       
PG17   3319.725345  16178.865844  21228.046805     64.810387  8  9  6 231       
PG18 -16291.014813  -7069.926726  19299.718158     58.503818  7  8 10 202       
PG19  11030.238451  16816.634531  17006.350534   -311.644352  7  9  8 202       
PG20  12863.641721 -22364.228476   5860.438471    525.127833  8 10  8 211       
PG21   3423.186420 -22198.670581 -13500.507694   -181.067881  7  3    225       
PG22 -20541.403115   4100.080891  16520.084505   -710.660522  9  8  6 209       
PG23 -23773.927580   2220.629564 -11707.020880   -183.591984  3  6  7 233       
PG24  16114.120159    351.266123  20995.788384    -66.905085  6 10  9 218       
PG25  19594.217424 -17698.497572    768.426873   -762.037853  8  7  7 221       
PG26  -5012.306521 -15842.309831 -20704.095408    216.687574  9 10  5 198       
PG27 -22342.051201 -12284.783324  -8085.978299   -147.158500  6  9  8 210       
PG28  -8660.436776  20142.840303  15663.650635    767.698120  7  8  1 209       
PG29  17933.905002  -6452.280148 -18537.687530    186.697372  4  8  5 217       
PG30  -2141.552171  24663.629430  -9326.908045   -116.035171  7  8  6 226       
PG31  -6756.690862 -25350.719860  -2068.130398     33.962736  8  7  7 156       
PG32  -5718.187942 -16453.716450  20143.044746    -61.200611  7  5  5 237       
*  2019  6  2  7 15  0.00000000
PG01 -15163.832416    436.647064  21646.831985    -30.868346  5  8  9 226       
PG02  14415.356277  20283.854485  -8889.914732   -227.642194  8 10  7 197       
PG03 -21080.524081   9309.385859  13090.454366    186.775888  4  8  6 151       
PG05  12438.342361   9333.239087 -21658.245152      0.714488  7  6  6 205       
PG07  -9461.156567  15438.608675 -19004.140655    -36.265695  8  6  7 202       
PG08 -26157.685908  -5203.997271    555.083038   -145.846571  4  5  6 245       
PG09 -15903.987836  10217.035515 -18701.110998    399.771444  6  3  5 222       
PG10   7878.260909 -21775.219682  12891.175504     28.671068  8  7  5 231       
PG11 -19812.832437  -2087.436056  16918.570943   -593.689897  7  7  8 214       
PG12  21105.686156  -6813.031908  14268.941499    236.948692  5 10  7 215       
PG13  22120.873977  13078.722197  -6919.766937    -60.951100  4 12  9 215       
PG14 -10224.660696 -16669.635443  18380.424439    -77.883376  7  8  7 239       
PG15  26608.096904   2655.586305   1088.149109   -309.504897  6 11  9 217       
PG16 -11730.545059  -9294.020535 -22154.021123    -44.801963  8 10  4 227       
PG17   1043.553099  15488.422621  21970.705175     64.816115  7  9  5 229       
PG18 -16848.636776  -9223.348264  17908.499786     58.506887  7  7 10 200       
PG19   9023.829180  16199.949163  18682.401955   -311.640299  6  9  8 197       
PG20  13462.015430 -22570.891522   3121.098814    525.127842  8 10  8 210       
PG21   4205.383893 -20577.643537 -15556.232895   -181.061272  7  4    224       
PG22 -19423.603213   2482.746271  18145.064970   -710.665897  9  7  6 205       
PG23 -24916.785838   1689.571729  -9268.934528   -183.590207  2  3  7 236       
PG24  16801.483699   2649.099732  20316.023218    -66.906263  5 10 10 219       
PG25  19574.569836 -17326.664308   3642.813608   -762.041070  8  7  7 222       
PG26  -3348.650586 -17455.713219 -19702.110285    216.696251  9 10  5  66       
PG27 -21285.370223 -12176.989948 -10686.191568   -147.167334  6  9  8 212       
PG28  -9939.782192  21055.591288  13472.385819    767.698098  7  8  1 206       
PG29  19805.262694  -5712.067936 -16790.812500    186.688634  3  8  6 221       
PG30  -2689.919362  23536.618176 -11786.036938   -116.041713  7  7  6 224       
PG31  -6491.054638 -25489.959068    812.205612     33.960240  8  7  7 151       
PG32  -3428.606334 -15950.930726  21039.240712    -61.185877  7  5  4 237       
EOF
